BEESAT-4                
1 41619U 16040W   23035.13551613  .00035628  00000+0  86143-3 0  9998
2 41619  97.1845  85.3851 0007407  12.9844 347.1593 15.41034726356260
RAVAN                   
1 41849U 16067B   23034.87631480  .00007835  00000+0  58474-3 0  9998
2 41849  98.0176 184.1481 0016198 276.1020  83.8358 15.03035103340721
CELTEE 1                
1 41850U 16067C   23035.34296842  .00005121  00000+0  41825-3 0  9990
2 41850  98.0257 178.8197 0004515 310.5018  49.5811 14.99860278340497
OPTICUBE 04             
1 41851U 16067D   23035.19031923  .00002810  00000+0  23900-3 0  9997
2 41851  98.0219 177.3631 0007656 287.8348  72.2038 14.98682966340404
AEROCUBE 8D             
1 41852U 16067E   23034.66977226  .00005281  00000+0  43033-3 0  9998
2 41852  98.0211 177.0919 0004957 311.4867  48.5929 14.99935974340332
AEROCUBE 8C             
1 41853U 16067F   23035.18868748  .00005072  00000+0  41371-3 0  9996
2 41853  98.0174 177.4233 0007382 270.8124  89.2253 14.99905477340408
PROMETHEUS 2-1          
1 41854U 16067G   23034.64525301  .00007342  00000+0  56021-3 0  9992
2 41854  98.0478 178.8296 0016856 307.5840  52.3852 15.02212378340412
PROMETHEUS 2-3          
1 41855U 16067H   23034.63675007  .00006803  00000+0  52021-3 0  9998
2 41855  98.0380 178.8243 0014963 317.8566  42.1506 15.02184870340411
INS-1B                  
1 41954U 17008G   23035.11558383  .00034154  00000+0  83517-3 0  9999
2 41954  97.2255  95.9450 0006783 118.9995 241.1933 15.40706270332286
BGUSAT                  
1 41999U 17008BD  23035.17135963  .00349041  00000+0  18136-2 0  9997
2 41999  97.2480 113.2440 0002190 327.1814  32.9318 15.80042110332586
DIDO-2                  
1 42000U 17008BE  23035.14911882  .00016740  00000+0  52190-3 0  9996
2 42000  97.2255  93.7645 0007352 143.9200 216.2540 15.33283654331500
PEASSS                  
1 42015U 17008BV  23035.12758445  .00029009  00000+0  73922-3 0  9992
2 42015  97.2321  99.2387 0004977 132.0485 228.1185 15.39492676332306
AL-FARABI 1             
1 42016U 17008BW  23035.14368498  .00047887  00000+0  95797-3 0  9998
2 42016  97.2387 103.9761 0003677 127.8873 232.2710 15.46624804332686
NAYIF-1 (EO-88)         
1 42017U 17008BX  23035.12605107  .00050008  00000+0  98654-3 0  9992
2 42017  97.2381 104.0209 0003821 127.3248 232.8351 15.47020465332717
UCLSAT                  
1 42765U 17036A   23035.06321351  .00029219  00000+0  78585-3 0  9993
2 42765  97.1666  76.0774 0007265 201.4159 158.6784 15.37814680312743
LITUANICASAT-2          
1 42768U 17036D   23035.09687360  .00125100  00000+0  15958-2 0  9994
2 42768  97.1710  82.6864 0006944 175.4423 184.6898 15.58844937312988
AALTO-1                 
1 42775U 17036L   23035.09629547  .00014138  00000+0  49002-3 0  9991
2 42775  97.1716  69.3583 0010184 215.1014 144.9557 15.29881690312134
URSA MAIOR              
1 42776U 17036M   23035.02791949  .00015027  00000+0  50339-3 0  9994
2 42776  97.1726  70.3180 0009811 212.6923 147.3713 15.30978371312177
COMPASS 2               
1 42777U 17036N   23035.57240054  .00053265  00000+0  10860-2 0  9991
2 42777  97.1721  80.4416 0007242 181.8954 178.2269 15.46024272312813
DIAMOND RED             
1 42783U 17036U   23035.09391904  .00018317  00000+0  57708-3 0  9998
2 42783  97.1719  73.2300 0008141 214.1708 145.9011 15.32923499312354
PEGASUS                 
1 42784U 17036V   23035.09840499  .00025432  00000+0  72364-3 0  9998
2 42784  97.1702  75.0487 0007764 206.1779 153.9074 15.36083927312470
DIAMOND GREEN           
1 42785U 17036W   23035.08528984  .00018959  00000+0  59229-3 0  9991
2 42785  97.1719  73.3089 0007960 215.7466 144.3245 15.33187626312343
DIAMOND BLUE            
1 42786U 17036X   23035.08764568  .00018562  00000+0  58163-3 0  9998
2 42786  97.1720  73.2972 0007961 216.1477 143.9229 15.33096513312345
NUDTSAT                 
1 42787U 17036Y   23035.26812558  .00059644  00000+0  11113-2 0  9991
2 42787  97.1695  81.9026 0006263 183.9090 176.2119 15.48616020312758
SUCHAI                  
1 42788U 17036Z   23034.64685547  .00030813  00000+0  77217-3 0  9994
2 42788  97.1697  77.1107 0006958 199.4398 160.6584 15.39979065312633
SKCUBE                  
1 42789U 17036AA  23034.68652293  .00025277  00000+0  67433-3 0  9998
2 42789  97.1695  76.2213 0007203 200.8692 159.2260 15.38094262312505
VZLUSAT-1               
1 42790U 17036AB  23034.08954949  .00047660  00000+0  91062-3 0  9992
2 42790  97.1700  80.6099 0005813 189.3984 170.7159 15.47948407312712
ROBUSTA 1B              
1 42792U 17036AD  23034.71841371  .00030298  00000+0  77392-3 0  9997
2 42792  97.1692  77.0781 0006649 199.6446 160.4545 15.39399940312579
CICERO 6                
1 42793U 17036AE  23035.09231769  .00015092  00000+0  48638-3 0  9990
2 42793  97.1703  73.6194 0006930 213.1573 146.9236 15.32247339312471
CORVUS BC2              
1 42846U 17042X   23034.80404340  .00002629  00000+0  25310-3 0  9995
2 42846  97.3973 243.7645 0008036 309.0300  51.0204 14.93739468302806
CORVUS BC1              
1 42847U 17042Y   23035.13848227  .00002737  00000+0  26269-3 0  9993
2 42847  97.3972 244.4193 0007664 306.4205  53.6309 14.93829508302868
MIRATA                  
1 43015U 17073C   23034.63472491  .00009561  00000+0  64576-3 0  9990
2 43015  97.6520 286.5805 0226165 138.4730 223.3919 14.88212504281595
MAKERSAT 0              
1 43016U 17073D   23034.67258529  .00005462  00000+0  38734-3 0  9992
2 43016  97.6523 285.4741 0236963 145.2388 216.4573 14.85204642281475
CORVUS BC3              
1 43118U 18004H   23034.15926377  .00013110  00000+0  42536-3 0  9990
2 43118  97.3389 109.1854 0007144 263.7976  96.2452 15.32066937281474
MICROMAS-2A             
1 43131U 18004W   23035.18948710  .00113607  00000+0  15223-2 0  9998
2 43131  97.3505 122.2182 0005589 246.4593 113.6076 15.57577173282320
CICERO 7                
1 43143U 18004AJ  23035.17514491  .00027427  00000+0  63489-3 0  9997
2 43143  97.3545 119.5685 0004062 242.8196 117.2638 15.42422412282174
GOMX-4B                 
1 43196U 18015E   23035.20162800  .00013168  00000+0  43854-3 0  9995
2 43196  97.5584 182.7782 0015622 321.5130  38.4995 15.31138124278564
GOMX-4A                 
1 43197U 18015F   23035.53098169  .00013943  00000+0  43107-3 0  9990
2 43197  97.5568 184.6208 0015017 316.8238 107.9158 15.33518668278723
AEROCUBE 12A            
1 43556U 18046C   23035.53273238  .00063396  00000+0  93693-3 0  9997
2 43556  51.6312 122.7690 0002673 160.4761 199.6333 15.54715228255199
AEROCUBE 12B            
1 43557U 18046D   23035.52291202  .00045471  00000+0  84071-3 0  9992
2 43557  51.6351 133.1013 0004312 150.4853 209.6380 15.48583128255000
CP7 (DAVE)              
1 43615U 18070C   23035.43787048  .00840867  36660-3  12025-2 0  9998
2 43615  92.9897 198.2386 0004779 273.0089  87.0654 16.05595751247353
CUBEBEL-1 (BSUSAT-1)    
1 43666U 18083E   23035.53459507  .00019287  00000+0  67889-3 0  9993
2 43666  97.3994  67.0833 0009865 228.2450 288.5317 15.29320517236860
CICERO 10               
1 43690U 18088A   23035.36883825  .00016848  00000+0  57658-3 0  9993
2 43690  85.0374 161.9396 0012447  13.0782 347.0784 15.30043238235120
PROXIMA I               
1 43694U 18088E   23035.39546635  .00020008  00000+0  64561-3 0  9999
2 43694  85.0310 158.0049 0014620 336.8570  23.2017 15.31911525235397
PROXIMA II              
1 43696U 18088G   23035.13995525  .00020218  00000+0  65387-3 0  9999
2 43696  85.0310 158.2090 0014658 337.8282  22.2329 15.31839370235357
FACSAT-1                
1 43721U 18096C   23035.52527736  .00064750  00000+0  10736-2 0  9991
2 43721  97.3283 121.7733 0010238 291.5642 193.9515 15.51870090233735
CENTAURI-2              
1 43722U 18096D   23035.20665196  .00172562  00000+0  16262-2 0  9991
2 43722  97.3316 125.7996 0010567 280.9090  79.0981 15.66462990233937
SIRION PATHFINDER-2     
1 43759U 18099B   23035.14576496  .00002927  00000+0  25583-3 0  9995
2 43759  97.5936 100.6215 0012841 198.0780 161.9987 14.97469456227707
CORVUS BC4              
1 43767U 18099K   23035.45936143  .00004059  00000+0  35839-3 0  9990
2 43767  97.5877  99.0863 0010513 200.9541 159.1252 14.96875319227669
MOVE-II                 
1 43780U 18099Y   23035.15049158  .00007391  00000+0  59203-3 0  9996
2 43780  97.6005 102.1728 0011335 219.9530 140.0860 15.00383304227764
SPACEBEE-7              
1 43816U 18099BL  23035.18279230  .00006705  00000+0  54610-3 0  9990
2 43816  97.5970 102.8684 0013525 188.8941 171.2045 14.99759085227351
SPACEBEE-5              
1 43817U 18099BM  23035.19855013  .00023354  00000+0  15410-2 0  9994
2 43817  97.6109 107.8145 0004785 182.9343 177.1858 15.07441356227595
SPACEBEE-6              
1 43818U 18099BN  23034.12117103  .00008584  00000+0  66073-3 0  9998
2 43818  97.6112 103.3342 0013389 206.5206 153.5335 15.01841579227415
SHIELDS 1               
1 43850U 18104B   23034.09814189  .00005745  00000+0  22244-3 0  9993
2 43850  85.0253 258.9474 0015178 127.5305 232.7321 15.25833881229646
STF-1                   
1 43852U 18104D   23034.06965405  .00016606  00000+0  51666-3 0  9998
2 43852  85.0258 258.2376 0012616 131.2175 229.0162 15.33101967229787
ZACUBE-2                
1 43907U 18111AH  23035.53165604  .00016460  00000+0  51758-3 0  9993
2 43907  97.1606 278.7951 0017061 339.3581 137.8516 15.32895307228770
LUME 1                  
1 43908U 18111AJ  23035.17223971  .00022928  00000+0  63202-3 0  9999
2 43908  97.1625 281.0887 0014490 331.2903  28.7543 15.37018086228896
AOBA VELOX-IV           
1 43940U 19003J   23035.59983972  .00138005  00000+0  16508-2 0  9996
2 43940  97.0989  71.7907 0010503  29.9268 330.2588 15.60465386225978
MOVE-IIB                
1 44398U 19038N   23035.46791059  .00030911  00000+0  11639-2 0  9998
2 44398  97.6541  13.4162 0020221  49.8541 310.4464 15.26858403198324
